satname,norad_id,inclination_deg,eccentricity,mean_motion_rev_per_day,perigee_km,apogee_km,l1,l2
STARLINK-1274,45387,53.033,0.0005097,15.32470531,464.95434251750794,471.9337472346542,1 45387U 20019AD  25334.09978181  .00067367  00000+0  21109-2 0  9992,2 45387  53.0330 213.8176 0005097  69.4095 290.7451 15.32470531315272
STARLINK-1280,45388,53.0481,0.0009491,15.45098459,424.6261490282168,437.5514214137229,1 45388U 20019AE  25334.77230488  .00087547  00000+0  18071-2 0  9995,2 45388  53.0481 240.4253 0009491 100.0699 260.1378 15.45098459314958
STARLINK-1283,45389,53.0515,0.0009983,15.34519048,455.52056973814524,469.17828493897014,1 45389U 20019AF  25334.85820350  .00063268  00000+0  18582-2 0  9999,2 45389  53.0515 221.2009 0009983 106.0247 254.1854 15.34519048315249
STARLINK-1284,45390,53.0544,0.0001297,15.06396368,546.3244703658083,548.1209086692697,1 45390U 20019AG  25334.43155718  .00000660  00000+0  63185-4 0  9992,2 45390  53.0544 232.2089 0001297  95.6598 264.4539 15.06396368315044
STARLINK-1297,45395,53.0554,0.0001239,15.06404157,546.3407682535226,548.0568664690645,1 45395U 20019AM  25334.73380192  .00000317  00000+0  40182-4 0  9997,2 45395  53.0554 230.8493 0001239  82.3571 277.7559 15.06404157314272
STARLINK-1307,45397,53.0537,0.0001569,15.06397537,546.132518315686,548.3056950619639,1 45397U 20019AP  25334.85912602 -.00000552  00000+0 -18132-4 0  9992,2 45397  53.0537 230.2865 0001569  85.5042 274.6126 15.06397537314938
STARLINK-1255,45399,53.0467,0.0007637,15.34360498,457.59621163659176,468.0450903527217,1 45399U 20019AR  25334.08500975  .00072195  00000+0  21283-2 0  9994,2 45399  53.0467 215.8949 0007637 111.6804 248.5011 15.34360498315057
STARLINK-1260,45404,53.0543,0.0002044,15.06403135,545.7864103501588,548.6174889127687,1 45404U 20019AW  25334.39561375  .00000569  00000+0  57086-4 0  9994,2 45404  53.0543 222.3628 0002044  85.4225 274.6997 15.06403135314897
STARLINK-1263,45405,53.0544,0.0001701,15.06413261,545.9929203049915,548.3489100577362,1 45405U 20019AX  25334.11548369  .00007371  00000+0  51303-3 0  9996,2 45405  53.0544 223.6258 0001701  92.3035 267.8149 15.06413261314857
STARLINK-1265,45406,53.0545,0.000137,15.06384792,546.3093895219527,548.2069477981668,1 45406U 20019AY  25334.85266976  .00008967  00000+0  62033-3 0  9993,2 45406  53.0545 220.3165 0001370  81.4479 278.6665 15.06384792314964
STARLINK-1278,45408,53.0539,0.0008936,15.37629473,447.01695734134773,459.22578229989176,1 45408U 20019BA  25334.81917111  .00052604  00000+0  14025-2 0  9999,2 45408  53.0539 242.1020 0008936  92.5255 267.6771 15.37629473314666
STARLINK-1296,45412,53.0545,0.0001695,15.06398871,546.0411709957534,548.38886532991,1 45412U 20019BE  25334.85635553 -.00000284  00000+0 -18744-6 0  9990,2 45412  53.0545 220.3010 0001695  97.6709 262.4473 15.06398871314966
STARLINK-1298,45413,53.0458,0.0008711,15.57905757,387.8201200103549,399.61804767962894,1 45413U 20019BF  25334.77878044  .00110491  00000+0  14376-2 0  9999,2 45413  53.0458 186.2688 0008711  67.7535 292.4400 15.57905757315532
STARLINK-1309,45414,53.0537,0.0001614,15.06433469,545.991247471351,548.2267168743974,1 45414U 20019BG  25334.07491225  .00010032  00000+0  69077-3 0  9994,2 45414  53.0537 223.8046 0001614  84.4961 275.6212 15.06433469314837
STARLINK-1316,45415,53.0531,0.0001474,15.06403323,546.1805785643546,548.2221683168445,1 45415U 20019BH  25334.43247390  .00002169  00000+0  16447-3 0  9992,2 45415  53.0531 222.1996 0001474  90.5163 269.5995 15.06403323314920
STARLINK-1318,45416,53.0479,0.0004911,15.64694892,370.80035653513187,377.43241981299707,1 45416U 20019BJ  25334.75229359  .00085046  00000+0  85663-3 0  9994,2 45416  53.0479 176.3336 0004911 136.5649 223.5753 15.64694892315581
STARLINK-1286,45417,53.0533,0.0005581,15.39207373,444.6419973899374,452.261835938717,1 45417U 20019BK  25334.16651214  .00064157  00000+0  16215-2 0  9995,2 45417  53.0533 245.2557 0005581  95.9982 264.1658 15.39207373314834
STARLINK-1308,45419,53.0549,0.0001244,15.06391384,546.3764482175811,548.0994815088397,1 45419U 20019BM  25334.79828929 -.00003377  00000+0 -20800-3 0  9990,2 45419  53.0549 250.5570 0001244  80.7424 279.3706 15.06391384314564
STARLINK-1329,45531,53.0537,0.0001508,15.0639464,546.1836405751756,548.272330654836,1 45531U 20025A   25334.76696418  .00000916  00000+0  80371-4 0  9999,2 45531  53.0537 190.7018 0001508  88.7300 271.3862 15.06394640310189
STARLINK-1338,45532,53.0536,0.0001422,15.06396804,546.2365672774567,548.2061391931175,1 45532U 20025B   25334.77802951  .00001638  00000+0  12883-3 0  9996,2 45532  53.0536 190.6488 0001422  85.5907 274.5244 15.06396804310185
STARLINK-1350,45535,53.073,0.0002114,15.33220588,464.7640529850596,467.65784329753296,1 45535U 20025E   25334.73973522  .00013825  00000+0  43534-3 0  9996,2 45535  53.0730 136.8546 0002114 107.3073 252.8159 15.33220588310962
STARLINK-1362,45538,53.0536,0.0001837,15.0638671,545.9800961610235,548.5244841862332,1 45538U 20025H   25334.74388135  .00003155  00000+0  23069-3 0  9996,2 45538  53.0536 190.5212 0001837  59.3312 300.7858 15.06386710310182
STARLINK-1368,45540,53.0524,0.0001595,15.06396368,546.1180946470613,548.3272843880177,1 45540U 20025K   25334.74854221 -.00000657  00000+0 -25193-4 0  9990,2 45540  53.0524 190.7820 0001595  94.1276 265.9895 15.06396368310178
STARLINK-1371,45542,53.0536,0.0001867,15.06393343,545.9389943746564,548.5249271446037,1 45542U 20025M   25334.85174916  .00000513  00000+0  53346-4 0  9990,2 45542  53.0536 190.3168 0001867  94.4230 265.6973 15.06393343310195
STARLINK-1372,45543,53.0532,0.0001572,15.06403754,546.1113895081935,548.288715477498,1 45543U 20025N   25334.75591451  .00000143  00000+0  28465-4 0  9990,2 45543  53.0532 190.7476 0001572  94.0279 266.0890 15.06403754309278
STARLINK-1373,45544,53.0533,0.000149,15.0639034,546.2092832586713,548.2730459517225,1 45544U 20025P   25334.77434749  .00000094  00000+0  25207-4 0  9995,2 45544  53.0533 190.6646 0001490  93.6290 266.4869 15.06390340310183
STARLINK-1294,45551,53.0449,0.0004027,15.65275066,369.7293289831132,375.16624997255803,1 45551U 20025W   25334.62152595  .00089599  00000+0  88131-3 0  9994,2 45551  53.0449 112.4219 0004027 149.5710 210.5538 15.65275066311278
STARLINK-1325,45554,53.0503,0.0006465,15.73647211,344.13469696709217,352.8322172181124,1 45554U 20025Z   25334.91670139  .00096221  00000+0  66845-3 0  9996,2 45554  53.0503 102.9516 0006465 327.2307 199.9028 15.73647211  6012
STARLINK-1327,45555,53.0537,0.0001601,15.06393052,546.124100926023,548.3416043528377,1 45555U 20025AA  25334.81304256  .00000356  00000+0  42834-4 0  9997,2 45555  53.0537 170.4924 0001601  89.8405 270.2767 15.06393052310467
STARLINK-1356,45564,53.0529,0.0001447,15.06395409,546.2235287554122,548.2277287001662,1 45564U 20025AK  25334.81673106  .00000706  00000+0  66286-4 0  9996,2 45564  53.0529 170.4754 0001447  88.8587 271.2567 15.06395409310464
STARLINK-1357,45565,53.0614,0.0009549,15.37143715,448.0359306351238,461.08501626992256,1 45565U 20025AL  25334.73757757  .00083505  00000+0  22459-2 0  9993,2 45565  53.0614 149.8591 0009549 120.3673 239.8275 15.37143715310751
STARLINK-1361,45567,53.0544,0.0001766,15.06392445,546.0116923774121,548.4577336664515,1 45567U 20025AN  25334.83515544 -.00000307  00000+0 -17237-5 0  9994,2 45567  53.0544 170.3907 0001766  86.0681 274.0510 15.06392445310479
STARLINK-1363,45568,53.0523,0.0007137,15.46751695,421.37964022313736,431.09220213082517,1 45568U 20025AP  25334.77582323  .00110984  00000+0  21573-2 0  9993,2 45568  53.0523 160.2485 0007137 161.0412 199.0861 15.46751695310600
STARLINK-1366,45569,53.0521,0.0004725,15.44099841,430.8055498362237,437.2430422609905,1 45569U 20025AQ  25334.77313046  .00112335  00000+0  23912-2 0  9999,2 45569  53.0521 160.1125 0004725 161.6160 198.5017 15.44099841310608
STARLINK-1376,45570,53.0537,0.000145,15.06395223,546.2220211301292,548.2303764577791,1 45570U 20025AR  25334.83147095  .00000137  00000+0  28077-4 0  9992,2 45570  53.0537 170.4116 0001450  89.7319 270.3836 15.06395223310462
STARLINK-1320,45572,53.0534,0.0007012,15.46836495,421.2161827356631,430.7582865623335,1 45572U 20025AT  25334.91670139  .00103114  00000+0  20012-2 0  9991,2 45572  53.0534 105.1605 0007012 107.2616 150.5586 15.46836495  5800
STARLINK-1321,45573,53.0532,0.0001481,15.0639417,546.2037793385234,548.255072873937,1 45573U 20025AU  25334.75130021 -.00000111  00000+0  11456-4 0  9993,2 45573  53.0532 160.7703 0001481  91.6912 268.4246 15.06394170310293
STARLINK-1328,45576,53.0448,0.0005213,15.80698491,324.96804699958466,331.96034940883237,1 45576U 20025AX  25334.91670139  .00241023  00000+0  11997-2 0  9999,2 45576  53.0448 121.5874 0005213 155.9143 111.3752 15.80698491  6030
STARLINK-1331,45578,53.0547,0.0001577,15.06423938,546.0460764896761,548.230308285355,1 45578U 20025AZ  25334.79551302  .00004916  00000+0  34848-3 0  9996,2 45578  53.0547 160.5720 0001577  94.3862 265.7307 15.06423938310610
STARLINK-1333,45580,53.0534,0.0001304,15.0639432,546.3258986528917,548.1320340969223,1 45580U 20025BB  25334.73564125  .00001572  00000+0  12442-3 0  9991,2 45580  53.0534 170.8380 0001304  91.3297 268.7841 15.06394320310452
STARLINK-1335,45581,53.0538,0.0001203,15.06394437,546.3954863019117,548.061729267145,1 45581U 20025BC  25334.74024646  .00000844  00000+0  75552-4 0  9995,2 45581  53.0538 160.8214 0001203  96.2397 263.8729 15.06394437310590
STARLINK-1337,45582,53.054,0.000149,15.06392643,546.2022258806237,548.2659864702628,1 45582U 20025BD  25334.76236102  .00000128  00000+0  27514-4 0  9990,2 45582  53.0540 160.7221 0001490  93.9414 266.1745 15.06392643310594
STARLINK-1347,45586,53.0524,0.0008751,15.36167674,451.4725532557277,463.43620528772954,1 45586U 20025BH  25334.75234125  .00095916  00000+0  26567-2 0  9990,2 45586  53.0524 140.4352 0008751 124.3249 235.8582 15.36167674310872
